LEMUR-2-MYRA            
1 66787U 25276EC  26202.47115860  .00005052  00000+0  40264-3 0  9990
2 66787  97.5224 272.2363 0018532  34.9739 325.2699 15.00636487 35356
LEMUR-2 FIKRETDENGIZ    
1 67363U 26004A   26201.94882538  .00003002  00000+0  32834-3 0  9992
2 67363  97.8036 199.9951 0009784  39.3350 320.8576 14.88543101 28303
TWILIGHT-1 OBJECT B     
1 67364U 26004B   26201.98878606  .00001110  00000+0  12740-3 0  9990
2 67364  97.8078 200.0319 0009314  28.9865 331.1867 14.87805943 28319
LEMUR-2-MARIO-SOUSA     
1 67365U 26004C   26202.46556056  .00004015  00000+0  43480-3 0  9999
2 67365  97.8009 200.4991 0009375  39.3938 320.7959 14.88761231 28394
LEMUR-2-SONNENBLUME     
1 67367U 26004E   26202.46958888  .00002014  00000+0  22263-3 0  9993
2 67367  97.8005 200.4728 0009019  40.2531 319.9352 14.88475296 28395
LEMUR-2-WOBLER          
1 67368U 26004F   26202.45783234  .00003291  00000+0  35781-3 0  9991
2 67368  97.8058 200.6187 0008958  32.1371 328.0390 14.88727128 28395
LEMUR-2-GRAM-E-SUE      
1 67370U 26004H   26202.58487582  .00001796  00000+0  19851-3 0  9993
2 67370  97.7992 200.6030 0008228  43.4846 316.7018 14.88609827 28412
LEMUR-2-KATIE           
1 67387U 26004AA  26202.46755178  .00004159  00000+0  43383-3 0  9990
2 67387  97.8052 201.0598 0002881  18.3057 341.8264 14.90286089 28412
LEMUR-2-HCS-BAZUS       
1 67388U 26004AB  26201.99587166  .00002816  00000+0  29560-3 0  9997
2 67388  97.8039 200.5715 0002444  20.6749 339.4568 14.90288038 28340
